{
  "type": "FeatureCollection",
  "features": [
    {
      "type": "Feature",
      "properties": {
        "norad_id": 54741,
        "name": "GALAXY 35 (G-35)",
        "group": "intelsat",
        "lat": -0.02967324141658217,
        "lon": -77.09709573932963,
        "alt_km": 35775.81603324852,
        "timestamp": "2025-12-27T18:38:03.147328+00:00",
        "meta_object_name": "GALAXY 35 (G-35)",
        "meta_object_id": "2022-170A",
        "meta_epoch": "2025-12-27T10:50:47.702400",
        "meta_mean_motion": 1.00268817,
        "meta_eccentricity": 0.0002633,
        "meta_inclination": 0.0117,
        "meta_ra_of_asc_node": 357.004,
        "meta_arg_of_pericenter": 281.9488,
        "meta_mean_anomaly": 246.8247,
        "meta_ephemeris_type": 0,
        "meta_classification_type": "U",
        "meta_norad_cat_id": 54741,
        "meta_element_set_no": 999,
        "meta_rev_at_epoch": 1117,
        "meta_bstar": 0,
        "meta_mean_motion_dot": 0,
        "meta_mean_motion_ddot": 0,
        "tle_line1": "1 54741U 22170A   25361.45194100  .00000000  00000+0  00000+0 0  9992",
        "tle_line2": "2 54741   0.0117 357.0040 0002633 281.9488 246.8247  1.00268817 11171"
      },
      "geometry": {
        "type": "Point",
        "coordinates": [
          -77.09709573932963,
          -0.02967324141658217
        ]
      }
    },
    {
      "type": "Feature",
      "properties": {
        "norad_id": 54742,
        "name": "GALAXY 36 (G-36)",
        "group": "intelsat",
        "lat": -0.016013223968578023,
        "lon": -72.98652176437545,
        "alt_km": 35784.77496810519,
        "timestamp": "2025-12-27T18:38:03.147340+00:00",
        "meta_object_name": "GALAXY 36 (G-36)",
        "meta_object_id": "2022-170B",
        "meta_epoch": "2025-12-27T05:39:55.754208",
        "meta_mean_motion": 1.00271515,
        "meta_eccentricity": 4.61e-05,
        "meta_inclination": 0.0242,
        "meta_ra_of_asc_node": 105.4723,
        "meta_arg_of_pericenter": 224.8294,
        "meta_mean_anomaly": 121.6598,
        "meta_ephemeris_type": 0,
        "meta_classification_type": "U",
        "meta_norad_cat_id": 54742,
        "meta_element_set_no": 999,
        "meta_rev_at_epoch": 1105,
        "meta_bstar": 0,
        "meta_mean_motion_dot": -1.63e-06,
        "meta_mean_motion_ddot": 0,
        "tle_line1": "1 54742U 22170B   25361.23606197 -.00000163  00000+0  00000+0 0  9994",
        "tle_line2": "2 54742   0.0242 105.4723 0000461 224.8294 121.6598  1.00271515 11057"
      },
      "geometry": {
        "type": "Point",
        "coordinates": [
          -72.98652176437545,
          -0.016013223968578023
        ]
      }
    },
    {
      "type": "Feature",
      "properties": {
        "norad_id": 57493,
        "name": "GALAXY 37 (G-37)",
        "group": "intelsat",
        "lat": -0.01734331144545689,
        "lon": -111.01084110062814,
        "alt_km": 35777.87076702879,
        "timestamp": "2025-12-27T18:38:03.147351+00:00",
        "meta_object_name": "GALAXY 37 (G-37)",
        "meta_object_id": "2023-112A",
        "meta_epoch": "2025-12-27T11:37:38.574336",
        "meta_mean_motion": 1.00272027,
        "meta_eccentricity": 0.0002235,
        "meta_inclination": 0.0142,
        "meta_ra_of_asc_node": 48.5761,
        "meta_arg_of_pericenter": 231.2535,
        "meta_mean_anomaly": 223.7896,
        "meta_ephemeris_type": 0,
        "meta_classification_type": "U",
        "meta_norad_cat_id": 57493,
        "meta_element_set_no": 999,
        "meta_rev_at_epoch": 882,
        "meta_bstar": 0,
        "meta_mean_motion_dot": 7e-07,
        "meta_mean_motion_ddot": 0,
        "tle_line1": "1 57493U 23112A   25361.48447424  .00000070  00000+0  00000+0 0  9996",
        "tle_line2": "2 57493   0.0142  48.5761 0002235 231.2535 223.7896  1.00272027  8827"
      },
      "geometry": {
        "type": "Point",
        "coordinates": [
          -111.01084110062814,
          -0.01734331144545689
        ]
      }
    }
  ]
}